{
  "type": "FeatureCollection",
  "features": [
    {
      "type": "Feature",
      "geometry": {
        "type": "Point",
        "coordinates": [-49.3697, -28.6775]
      },
      "properties": {
        "name": "Cliente A"
      },
      "id": "exemplo1"
    },
    {
      "type": "Feature",
      "geometry": {
        "type": "Point",
        "coordinates": [-49.385, -28.665]
      },
      "properties": {
        "name": "Cliente B"
      },
      "id": "exemplo2"
    },
    {
      "type": "Feature",
      "geometry": {
        "type": "Point",
        "coordinates": [-49.36, -28.69]
      },
      "properties": {
        "name": "Cliente C"
      },
      "id": "exemplo3"
    },
    {
      "type": "Feature",
      "geometry": {
        "type": "Point",
        "coordinates": [-49.405, -28.672]
      },
      "properties": {
        "name": "Cliente D"
      },
      "id": "exemplo4"
    },
    {
      "type": "Feature",
      "geometry": {
        "type": "Point",
        "coordinates": [-49.38, -28.7]
      },
      "properties": {
        "name": "Cliente E"
      },
      "id": "exemplo5"
    }
  ]
}
